STARLINK-4487           
1 53531U 22101E   22253.16667824 -.01119676  00000+0 -15322-1 0  9993
2 53531  53.2173  49.1955 0001520  45.6264 108.2033 15.59484299  3385
STARLINK-4483           
1 53532U 22101F   22252.91667824 -.01112552  00000+0 -14858-1 0  9995
2 53532  53.2173  50.4864 0001765  36.5344 154.1612 15.60098634  1308
STARLINK-4493           
1 53533U 22101G   22252.91667824 -.01112550  00000+0 -14854-1 0  9990
2 53533  53.2173  50.4908 0001728  37.8700 153.5601 15.60105894  1305
STARLINK-4488           
1 53534U 22101H   22252.91667824 -.01112757  00000+0 -14839-1 0  9993
2 53534  53.2173  50.5128 0001991  29.7781 164.5893 15.60135045  1308
STARLINK-4138           
1 53535U 22101J   22253.16667824 -.01119853  00000+0 -15302-1 0  9992
2 53535  53.2175  49.2862 0001572  43.1993 114.3326 15.59522430  3381
STARLINK-4053           
1 53536U 22101K   22253.16667824 -.00037659  00000+0 -26490-3 0  9997
2 53536  53.2163  48.9542 0001508  33.9286 266.4158 15.73217338  3387
STARLINK-4120           
1 53537U 22101L   22252.91667824 -.01112585  00000+0 -14851-1 0  9999
2 53537  53.2173  50.4918 0001613  42.5460 149.6187 15.60113030  1305
STARLINK-4118           
1 53538U 22101M   22253.16667824 -.00054468  00000+0 -38586-3 0  9995
2 53538  53.2160  48.9517 0001549  37.4944 263.4441 15.73218475  3388
STARLINK-4123           
1 53539U 22101N   22253.16667824 -.01119917  00000+0 -15299-1 0  9992
2 53539  53.2175  49.2937 0001502  46.9201 111.3523 15.59529799  3385
STARLINK-4486           
1 53540U 22101P   22253.16667824 -.00056225  00000+0 -39835-3 0  9999
2 53540  53.2165  48.9516 0001597  38.1560 263.9820 15.73228997  3386
STARLINK-4485           
1 53541U 22101Q   22252.91667824 -.01112592  00000+0 -14834-1 0  9993
2 53541  53.2173  50.5198 0001679  39.6667 155.4348 15.60142323  1300
STARLINK-4489           
1 53542U 22101R   22252.91667824  .00009770  00000+0  73982-4 0  9996
2 53542  53.2159  50.1860 0001848  28.1671 298.4501 15.73189754  1305
STARLINK-4297           
1 53543U 22101S   22253.16667824 -.00062266  00000+0 -44177-3 0  9999
2 53543  53.2162  48.9514 0001571  37.5708 263.9595 15.73238217  3388
STARLINK-4303           
1 53544U 22101T   22253.16667824 -.00257783  00000+0 -18795-2 0  9996
2 53544  53.2167  48.9441 0001495  34.1476 270.3862 15.73317846  3388
STARLINK-4475           
1 53545U 22101U   22252.91667824 -.00060500  00000+0 -42913-3 0  9998
2 53545  53.2161  50.1872 0001522  39.8583 286.1705 15.73232702  1306
STARLINK-4477           
1 53546U 22101V   22253.16667824  .00051559  00000+0  36980-3 0  9996
2 53546  53.2168  47.8617 0002063  30.9692  79.4234 15.73181372  3407
STARLINK-4474           
1 53547U 22101W   22252.91667824  .00033174  00000+0  24002-3 0  9994
2 53547  53.2162  50.1853 0001587  31.4133 295.7976 15.73182931  1302
STARLINK-4513           
1 53548U 22101X   22252.91667824 -.00033744  00000+0 -23701-3 0  9995
2 53548  53.2159  50.1793 0001747  34.5701 295.7279 15.73194752  1305
STARLINK-4516           
1 53549U 22101Y   22253.16667824 -.00088309  00000+0 -63012-3 0  9990
2 53549  53.2157  48.9424 0001539  44.5511 260.5624 15.73246707  3381
STARLINK-4518           
1 53550U 22101Z   22253.16667824 -.00069875  00000+0 -49717-3 0  9995
2 53550  53.2159  48.9391 0001566  33.2744 274.2372 15.73218526  3381
STARLINK-4514           
1 53551U 22101AA  22253.16667824 -.00212544  00000+0 -15414-2 0  9995
2 53551  53.2169  48.9414 0001477  28.2869 277.4244 15.73306513  3389
STARLINK-4495           
1 53552U 22101AB  22252.91667824  .00039304  00000+0  28358-3 0  9999
2 53552  53.2159  50.1751 0001745  31.7350 300.8528 15.73163647  1305
STARLINK-4501           
1 53553U 22101AC  22253.16667824 -.00018326  00000+0 -12640-3 0  9998
2 53553  53.2161  48.9385 0001577  35.6779 272.4350 15.73205332  3383
STARLINK-4506           
1 53554U 22101AD  22253.16667824 -.00044676  00000+0 -31540-3 0  9996
2 53554  53.2158  48.9333 0001512  47.9733 262.5086 15.73213553  3388
STARLINK-4504           
1 53555U 22101AE  22252.91667824  .00061431  00000+0  43966-3 0  9990
2 53555  53.2155  50.1739 0001732  35.0556 296.9069 15.73159977  1307
STARLINK-4505           
1 53556U 22101AF  22253.16667824  .00002643  00000+0  23245-4 0  9998
2 53556  53.2159  48.9315 0001668  35.5953 276.0515 15.73198692  3383
STARLINK-4502           
1 53557U 22101AG  22253.16667824 -.00096454  00000+0 -68995-3 0  9994
2 53557  53.2159  48.9345 0001512  43.5158 266.4127 15.73225424  3387
STARLINK-4494           
1 53558U 22101AH  22252.91667824  .00006191  00000+0  48505-4 0  9990
2 53558  53.2158  50.1683 0001662  38.2749 297.8625 15.73197331  1306
STARLINK-4508           
1 53559U 22101AJ  22253.16667824 -.00000106  00000+0  36659-5 0  9998
2 53559  53.2160  48.9331 0001660  40.0557 271.0541 15.73189799  3381
STARLINK-4564           
1 53560U 22101AK  22252.91667824  .00073421  00000+0  52394-3 0  9993
2 53560  53.2155  50.1646 0001845  35.9268 301.4732 15.73156435  1309
STARLINK-4563           
1 53561U 22101AL  22253.16667824 -.00018146  00000+0 -12509-3 0  9991
2 53561  53.2158  48.9294 0001640  36.4484 275.8323 15.73209586  3382
STARLINK-4565           
1 53562U 22101AM  22253.16667824 -.00052758  00000+0 -37352-3 0  9992
2 53562  53.2157  48.9241 0001716  36.9631 278.2530 15.73218781  3381
STARLINK-4561           
1 53563U 22101AN  22253.16667824 -.00053932  00000+0 -38196-3 0  9995
2 53563  53.2159  48.9280 0001697  40.7532 272.6813 15.73220284  3381
STARLINK-4577           
1 53564U 22101AP  22253.16667824 -.00031972  00000+0 -22413-3 0  9991
2 53564  53.2155  48.9205 0001593  44.9258 271.5416 15.73210891  3381
STARLINK-4575           
1 53565U 22101AQ  22253.16667824 -.00093349  00000+0 -66783-3 0  9996
2 53565  53.2158  48.9245 0001540  42.0004 272.7478 15.73208393  3384
STARLINK-4576           
1 53566U 22101AR  22253.16667824 -.00015689  00000+0 -10746-3 0  9996
2 53566  53.2157  48.9199 0001675  37.0232 280.5842 15.73223308  3383
STARLINK-4585           
1 53567U 22101AS  22253.16667824 -.00033454  00000+0 -23488-3 0  9994
2 53567  53.2160  48.9234 0001594  35.0244 280.8673 15.73199637  3381
STARLINK-4583           
1 53568U 22101AT  22253.16667824  .00040982  00000+0  29513-3 0  9992
2 53568  53.2157  48.9158 0001765  33.1037 286.3227 15.73188669  3381
STARLINK-4582           
1 53569U 22101AU  22253.16667824 -.00036752  00000+0 -25839-3 0  9992
2 53569  53.2157  48.9201 0001697  36.9928 280.0401 15.73216314  3389
STARLINK-4550           
1 53570U 22101AV  22252.91667824  .00011877  00000+0  88943-4 0  9991
2 53570  53.2155  50.1555 0001662  32.7959 309.3375 15.73193781  1303
STARLINK-4584           
1 53571U 22101AW  22253.16667824 -.00014101  00000+0 -96167-4 0  9992
2 53571  53.2157  48.9173 0001558  39.3562 278.8909 15.73211367  3388
STARLINK-4555           
1 53572U 22101AX  22253.16667824 -.00098395  00000+0 -70379-3 0  9996
2 53572  53.2159  48.9124 0001781  26.1997 295.0452 15.73234151  3381
STARLINK-4547           
1 53573U 22101AY  22253.16667824 -.00036067  00000+0 -25344-3 0  9997
2 53573  53.2157  48.9142 0001748  36.0862 283.9424 15.73218650  3385
STARLINK-4559           
1 53574U 22101AZ  22253.16667824 -.00069703  00000+0 -49592-3 0  9992
2 53574  53.2161  48.9116 0001702  32.3740 290.0393 15.73218159  3384
STARLINK-4551           
1 53575U 22101BA  22253.16667824 -.00019210  00000+0 -13276-3 0  9991
2 53575  53.2158  48.9135 0001653  34.6399 286.0015 15.73199580  3384
STARLINK-4581           
1 53576U 22101BB  22253.16667824 -.00052733  00000+0 -37330-3 0  9996
2 53576  53.2154  48.9077 0001753  30.9811 291.9893 15.73221032  3382
STARLINK-4553           
1 53577U 22101BC  22253.16667824 -.00054794  00000+0 -38870-3 0  9996
2 53577  53.2157  48.9100 0001603  27.3188 294.5724 15.73188958  3385
STARLINK-4556           
1 53578U 22101BD  22253.16667824 -.00022782  00000+0 -15828-3 0  9997
2 53578  53.2158  48.9081 0001697  30.8572 292.7601 15.73207299  3388
STARLINK-4580           
1 53579U 22101BE  22253.16667824 -.00056354  00000+0 -39979-3 0  9993
2 53579  53.2157  48.9061 0001783  36.9115 287.3315 15.73198776  3383
FALCON 9 DEB            
1 53580U 22101BF  22251.69903974  .06630223  12236-4  58430-3 0  9999
2 53580  53.2077  52.2940 0010089 118.4804 241.7262 16.38230071  3214
FALCON 9 DEB            
1 53581U 22101BG  22251.87823506  .07763753  12306-4  56387-3 0  9995
2 53581  53.1994  51.2645 0007744 109.0751 251.1137 16.39930548  3240
FALCON 9 DEB            
1 53582U 22101BH  22251.92466758  .09832904  12462-4  28754-3 0  9991
2 53582  53.2126  50.8388 0003632 118.1516 241.9902 16.45196635  3256
FALCON 9 DEB            
1 53583U 22101BJ  22251.92182980  .07711824  12398-4  35486-3 0  9997
2 53583  53.2129  50.8020 0005288 111.8467 248.3145 16.43049681  3253
CHUANGXIN 16 (CX-16)    
1 53586U 22102A   22252.68951347  .00001658  00000+0  14798-3 0  9991
2 53586  29.0002 255.2340 0004911  72.5105 287.5940 14.91671744  2638
BEIJING-3B              
1 53587U 22103A   22253.12266959  .00000639  00000+0  76969-4 0  9998
2 53587  97.9403 321.7470 0014260 202.5376 157.5325 14.87300315  2534
STARLINK-4691           
1 53588U 22104A   22253.16667824 -.00092649  00000+0 -66092-3 0  9999
2 53588  53.2157 223.4876 0000836 288.1863 239.9998 15.73274392  2081
STARLINK-4673           
1 53589U 22104B   22253.16667824 -.00066449  00000+0 -47214-3 0  9994
2 53589  53.2159 223.4816 0000591 304.1156 227.1505 15.73233187  2080
STARLINK-4689           
1 53590U 22104C   22253.16667824 -.00004774  00000+0 -29630-4 0  9992
2 53590  53.2153 223.4851 0001026  74.9126  93.9928 15.73195574  2083
STARLINK-4674           
1 53591U 22104D   22253.16667824  .00021379  00000+0  15634-3 0  9999
2 53591  53.2155 223.4844 0001252  71.7125  97.7040 15.73202431  2081
